<gpx xmlns:ns3="http://www.garmin.com/xmlschemas/TrackPointExtension/v1" xmlns="http://www.topografix.com/GPX/1/1" xmlns:xsi="http://www.w3.org/2001/XMLSchema-instance" xmlns:ns2="http://www.garmin.com/xmlschemas/GpxExtensions/v3" creator="Garmin Connect" version="1.1" xsi:schemaLocation="http://www.topografix.com/GPX/1/1 http://www.topografix.com/GPX/11.xsd">
  <extensions>
<distance>42.37</distance>
<average_hr>142.0</average_hr>
<average_speed>0.01899999938905239</average_speed>
<start_time>2026-07-28T04:03:40+00:00</start_time>
<end_time>2026-07-28T04:41:09.907000+00:00</end_time>
<moving_time>32.0</moving_time>
<elapsed_time>3146.869</elapsed_time>
</extensions>
<metadata>
    <link href="connect.garmin.com">
      <text>Garmin Connect</text>
    </link>
    <time>2026-07-28T04:03:40.000Z</time>
  </metadata>
  <trk>
    <name>羽毛球</name>
    <type>badminton</type>
    <trkseg/>
  </trk>
</gpx>
