<gpx xmlns:ns3="http://www.garmin.com/xmlschemas/TrackPointExtension/v1" xmlns="http://www.topografix.com/GPX/1/1" xmlns:xsi="http://www.w3.org/2001/XMLSchema-instance" xmlns:ns2="http://www.garmin.com/xmlschemas/GpxExtensions/v3" creator="Garmin Connect" version="1.1" xsi:schemaLocation="http://www.topografix.com/GPX/1/1 http://www.topografix.com/GPX/11.xsd">
  <extensions>
<distance>250.76</distance>
<average_hr>136.0</average_hr>
<average_speed>0.09099999815225601</average_speed>
<start_time>2026-08-04T04:23:46+00:00</start_time>
<end_time>2026-08-04T05:09:33.966000+00:00</end_time>
<moving_time>232.0</moving_time>
<elapsed_time>3359.989</elapsed_time>
</extensions>
<metadata>
    <link href="connect.garmin.com">
      <text>Garmin Connect</text>
    </link>
    <time>2026-08-04T04:23:46.000Z</time>
  </metadata>
  <trk>
    <name>羽毛球</name>
    <type>badminton</type>
    <trkseg/>
  </trk>
</gpx>
